ONEWEB-0020             
1 45133U 20008C   25037.33333059  .00000715  00000+0  20118-2 0  9998
2 45133  87.8911 135.0740 0001809  98.9345 261.1987 13.10372589243404
ONEWEB-0021             
1 45134U 20008D   25036.50832104  .00000043  00000+0  86792-4 0  9998
2 45134  87.8917 135.2639 0001771 112.2880 247.8436 13.10369075243600
ONEWEB-0023             
1 45136U 20008F   25036.51908974 -.00000429  00000+0 -12658-2 0  9998
2 45136  87.8916 135.2482 0001540 103.0432 257.0868 13.10370903243033
ONEWEB-0024             
1 45137U 20008G   25037.33167273  .00000718  00000+0  20207-2 0  9997
2 45137  87.8906 135.0515 0001828 108.8218 251.3107 13.10374997243302
ONEWEB-0025             
1 45138U 20008H   25037.34991384  .00000117  00000+0  29975-3 0  9992
2 45138  87.8902 135.0490 0001413 123.6227 236.5035 13.10368988243630
ONEWEB-0026             
1 45139U 20008J   25037.61104209  .00000179  00000+0  47027-3 0  9991
2 45139  87.8897 119.8498 0002003 101.9744 258.1608 13.11414458246152
ONEWEB-0028             
1 45140U 20008K   25036.26904681 -.00000357  00000+0 -10430-2 0  9992
2 45140  87.8893 120.1467 0001335 119.2971 240.8290 13.11419088243495
ONEWEB-0032             
1 45141U 20008L   25036.52490398 -.00000609  00000+0 -17803-2 0  9998
2 45141  87.8907 135.2618 0001599 111.5210 248.6088 13.10371623243256
